COSMOS 2251 DEB         
1 37506U 93036BMK 17344.21866950  .00001225  00000-0  29416-3 0  9993
2 37506  74.0543 188.6591 0036308 235.4225 124.3511 14.54139865232704
